{
  "norad_id": 49199,
  "name": "ONEWEB-0333",
  "history": [
    {
      "epoch": "2026-03-28T22:12:12.896064",
      "apogee_km": 1211.0495330463737,
      "perigee_km": 1208.4951392474532,
      "latitude_deg": -44.205947083362446,
      "longitude_deg": -91.2856710399501,
      "semi_major_axis_km": 7587.909336146913,
      "eccentricity": 0.00016832,
      "inclination_deg": 87.9004,
      "raan_deg": 336.2159,
      "arg_perigee_deg": 81.4056,
      "mean_anomaly_deg": 278.7263,
      "mean_motion_rev_day": 13.13468199
    },
    {
      "epoch": "2026-03-29T03:41:18.147264",
      "apogee_km": 1211.0547004281461,
      "perigee_km": 1208.4869524196847,
      "latitude_deg": 74.2277183980876,
      "longitude_deg": -69.34650304005481,
      "semi_major_axis_km": 7587.907826423915,
      "eccentricity": 0.0001692,
      "inclination_deg": 87.9004,
      "raan_deg": 336.1705,
      "arg_perigee_deg": 81.2077,
      "mean_anomaly_deg": 278.9244,
      "mean_motion_rev_day": 13.13468591
    }
  ]
}